NORAD_CAT_ID,OBJECT_NAME,OBJECT_TYPE,EPOCH,MEAN_MOTION,ECCENTRICITY,INCLINATION,RA_OF_ASC_NODE,ARG_OF_PERICENTER,MEAN_ANOMALY,BSTAR,MEAN_MOTION_DOT,MEAN_MOTION_DDOT,TLE_LINE0,TLE_LINE1,TLE_LINE2,SEMIMAJOR_AXIS,PERIOD,APOGEE,PERIGEE,DECAYED
53556.0,STARLINK-4505,PAYLOAD,2023-09-03 23:04:52,15.08830826,0.0001124,53.2183,223.9639,85.7483,274.3637,-8.9333e-05,-1.709e-05,0.0,0 STARLINK-4505,1 53556U 22101AF  23246.96172008 -.00001709  00000-0 -89333-4 0  9999,2 53556  53.2183 223.9639 0001124  85.7483 274.3637 15.08830826 57763,6917.908,95.438,540.551,538.996,0.0
53556.0,STARLINK-4505,PAYLOAD,2023-09-04 05:26:24,15.08833831,0.0001333,53.2168,222.7716,96.0356,264.0788,-6.0521e-05,-1.251e-05,0.0,0 STARLINK-4505,1 53556U 22101AF  23247.22667800 -.00001251  00000-0 -60521-4 0  9998,2 53556  53.2168 222.7716 0001333  96.0356 264.0788 15.08833831 57802,6917.899,95.438,540.686,538.842,0.0
53556.0,STARLINK-4505,PAYLOAD,2023-09-04 14:58:43,15.08835136,0.0001271,53.2171,220.9875,97.6147,262.499,2.8804e-05,1.71e-06,0.0,0 STARLINK-4505,1 53556U 22101AF  23247.62411676  .00000171  00000-0  28804-4 0  9996,2 53556  53.2171 220.9875 0001271  97.6147 262.4990 15.08835136 57861,6917.895,95.438,540.64,538.881,0.0
53556.0,STARLINK-4505,PAYLOAD,2023-09-05 08:27:58,15.0883974,0.0001377,53.2178,217.7178,101.6617,258.4529,7.912e-05,9.71e-06,0.0,0 STARLINK-4505,1 53556U 22101AF  23248.35275619  .00000971  00000-0  79120-4 0  9997,2 53556  53.2178 217.7178 0001377 101.6617 258.4529 15.08839740 57973,6917.881,95.438,540.699,538.794,0.0
53556.0,STARLINK-4505,PAYLOAD,2023-09-06 09:54:08,15.08839031,0.0001328,53.2177,212.9597,104.1715,255.9425,0.00015138,2.122e-05,0.0,0 STARLINK-4505,1 53556U 22101AF  23249.41259944  .00002122  00000-0  15138-3 0  9996,2 53556  53.2177 212.9597 0001328 104.1715 255.9425 15.08839031 58136,6917.883,95.438,540.667,538.83,0.0
53556.0,STARLINK-4505,PAYLOAD,2023-09-07 06:34:09,15.0884229,0.0001259,53.2175,209.093,102.6969,257.4164,9.5797e-05,1.237e-05,0.0,0 STARLINK-4505,1 53556U 22101AF  23250.27371974  .00001237  00000-0  95797-4 0  9996,2 53556  53.2175 209.0930 0001259 102.6969 257.4164 15.08842290 58261,6917.873,95.437,540.609,538.867,0.0
53556.0,STARLINK-4505,PAYLOAD,2023-09-08 03:14:10,15.08843309,0.0001356,53.2173,205.2286,90.5428,269.5719,0.00011489,1.541e-05,0.0,0 STARLINK-4505,1 53556U 22101AF  23251.13483976  .00001541  00000-0  11489-3 0  9991,2 53556  53.2173 205.2286 0001356  90.5428 269.5719 15.08843309 58390,6917.87,95.437,540.673,538.797,0.0
53556.0,STARLINK-4505,PAYLOAD,2023-09-08 04:49:33,15.088449,0.0001313,53.2173,204.9309,92.1256,267.9886,0.00013901,1.925e-05,0.0,0 STARLINK-4505,1 53556U 22101AF  23251.20107822  .00001925  00000-0  13901-3 0  9999,2 53556  53.2173 204.9309 0001313  92.1256 267.9886 15.08844900 58409,6917.865,95.437,540.639,538.822,0.0
53556.0,STARLINK-4505,PAYLOAD,2023-09-08 20:43:24,15.08843257,0.0001292,53.2173,201.9574,92.7261,267.3879,0.00010598,1.399e-05,0.0,0 STARLINK-4505,1 53556U 22101AF  23251.86347993  .00001399  00000-0  10598-3 0  9990,2 53556  53.2173 201.9574 0001292  92.7261 267.3879 15.08843257 58509,6917.87,95.437,540.629,538.842,0.0
53556.0,STARLINK-4505,PAYLOAD,2023-09-09 06:15:42,15.08850443,0.0001318,53.2174,200.1716,95.7826,264.3317,0.00018731,2.695e-05,0.0,0 STARLINK-4505,1 53556U 22101AF  23252.26091186  .00002695  00000-0  18731-3 0  9992,2 53556  53.2174 200.1716 0001318  95.7826 264.3317 15.08850443 58563,6917.848,95.437,540.625,538.802,0.0
53556.0,STARLINK-4505,PAYLOAD,2023-09-09 14:12:39,15.08843974,0.000139,53.2179,198.6842,99.2385,260.8765,6.8402e-05,8.01e-06,0.0,0 STARLINK-4505,1 53556U 22101AF  23252.59211844  .00000801  00000-0  68402-4 0  9991,2 53556  53.2179 198.6842 0001390  99.2385 260.8765 15.08843974 58613,6917.868,95.437,540.695,538.772,0.0
53556.0,STARLINK-4505,PAYLOAD,2023-09-10 02:55:44,15.08842469,0.0001425,53.2173,196.3076,91.8267,268.2888,5.6105e-05,6.05e-06,0.0,0 STARLINK-4505,1 53556U 22101AF  23253.12204161  .00000605  00000-0  56105-4 0  9994,2 53556  53.2173 196.3076 0001425  91.8267 268.2888 15.08842469 58691,6917.873,95.437,540.724,538.752,0.0
53556.0,STARLINK-4505,PAYLOAD,2023-09-11 02:46:31,15.08843142,0.0001474,53.2177,191.8454,103.7898,256.3258,1.45e-05,-5.7e-07,0.0,0 STARLINK-4505,1 53556U 22101AF  23254.11564220 -.00000057  00000-0  14500-4 0  9994,2 53556  53.2177 191.8454 0001474 103.7898 256.3258 15.08843142 58847,6917.871,95.437,540.755,538.716,0.0
53556.0,STARLINK-4505,PAYLOAD,2023-09-11 05:57:17,15.08843718,0.0001537,53.2177,191.25,110.7432,249.3725,1.8684e-05,9e-08,0.0,0 STARLINK-4505,1 53556U 22101AF  23254.24812133  .00000009  00000-0  18684-4 0  9990,2 53556  53.2177 191.2500 0001537 110.7432 249.3725 15.08843718 58867,6917.869,95.437,540.797,538.671,0.0
53556.0,STARLINK-4505,PAYLOAD,2023-09-12 02:37:18,15.08845001,0.000137,53.2171,187.3862,91.5947,268.5202,0.00013796,1.909e-05,0.0,0 STARLINK-4505,1 53556U 22101AF  23255.10924026  .00001909  00000-0  13796-3 0  9999,2 53556  53.2171 187.3862 0001370  91.5947 268.5202 15.08845001 58994,6917.865,95.437,540.678,538.782,0.0
53556.0,STARLINK-4505,PAYLOAD,2023-09-13 02:28:05,15.08844749,0.0001448,53.2169,182.93,105.9623,254.1529,8.4446e-05,1.056e-05,0.0,0 STARLINK-4505,1 53556U 22101AF  23256.10284123  .00001056  00000-0  84446-4 0  9991,2 53556  53.2169 182.9300 0001448 105.9623 254.1529 15.08844749 59145,6917.866,95.437,540.733,538.729,0.0
53556.0,STARLINK-4505,PAYLOAD,2023-09-13 04:03:28,15.08852128,0.0001321,53.2166,182.6296,91.5948,268.5195,0.00018602,2.675e-05,0.0,0 STARLINK-4505,1 53556U 22101AF  23256.16907730  .00002675  00000-0  18602-3 0  9991,2 53556  53.2166 182.6296 0001321  91.5948 268.5195 15.08852128 59152,6917.843,95.437,540.622,538.794,0.0
53556.0,STARLINK-4505,PAYLOAD,2023-09-14 02:18:52,15.08846066,0.0001449,53.2172,178.4639,72.7791,287.336,2.9824e-05,1.87e-06,0.0,0 STARLINK-4505,1 53556U 22101AF  23257.09643949  .00000187  00000-0  29824-4 0  9998,2 53556  53.2172 178.4639 0001449  72.7791 287.3360 15.08846066 59293,6917.862,95.437,540.729,538.724,0.0
53556.0,STARLINK-4505,PAYLOAD,2023-09-14 18:12:44,15.0883681,0.0001358,53.2166,175.4921,89.5067,270.608,-0.00012037,-2.203e-05,0.0,0 STARLINK-4505,1 53556U 22101AF  23257.75884559 -.00002203  00000-0 -12037-3 0  9995,2 53556  53.2166 175.4921 0001358  89.5067 270.6080 15.08836810 59399,6917.89,95.438,540.695,538.816,0.0
53556.0,STARLINK-4505,PAYLOAD,2023-09-15 02:09:40,15.08842109,0.0001308,53.2174,174.0059,90.3976,269.7166,-1.0805e-05,-4.6e-06,0.0,0 STARLINK-4505,1 53556U 22101AF  23258.09004815 -.00000460  00000-0 -10805-4 0  9997,2 53556  53.2174 174.0059 0001308  90.3976 269.7166 15.08842109 59447,6917.874,95.437,540.644,538.834,0.0
53556.0,STARLINK-4505,PAYLOAD,2023-09-16 00:25:03,15.08848119,0.0001337,53.2176,169.8426,90.0137,270.1009,0.00010133,1.325e-05,0.0,0 STARLINK-4505,1 53556U 22101AF  23259.01740322  .00001325  00000-0  10133-3 0  9992,2 53556  53.2176 169.8426 0001337  90.0137 270.1009 15.08848119 59581,6917.856,95.437,540.645,538.796,0.0
53556.0,STARLINK-4505,PAYLOAD,2023-09-17 00:15:50,15.08843964,0.0001415,53.2181,165.3807,100.9855,259.1296,0.00011428,1.531e-05,0.0,0 STARLINK-4505,1 53556U 22101AF  23260.01100617  .00001531  00000-0  11428-3 0  9998,2 53556  53.2181 165.3807 0001415 100.9855 259.1296 15.08843964 59731,6917.868,95.437,540.712,538.754,0.0
53556.0,STARLINK-4505,PAYLOAD,2023-09-18 00:06:37,15.0884934,0.0001359,53.2174,160.9228,92.3972,267.7176,0.00010041,1.311e-05,0.0,0 STARLINK-4505,1 53556U 22101AF  23261.00460306  .00001311  00000-0  10041-3 0  9998,2 53556  53.2174 160.9228 0001359  92.3972 267.7176 15.08849340 59884,6917.852,95.437,540.657,538.777,0.0
53556.0,STARLINK-4505,PAYLOAD,2023-09-18 20:46:39,15.08838766,0.0001365,53.2178,157.0563,97.4473,262.6674,3.1072e-05,2.07e-06,0.0,0 STARLINK-4505,1 53556U 22101AF  23261.86573073  .00000207  00000-0  31072-4 0  9999,2 53556  53.2178 157.0563 0001365  97.4473 262.6674 15.08838766 60010,6917.884,95.438,540.693,538.805,0.0
53556.0,STARLINK-4505,PAYLOAD,2023-09-19 01:32:47,15.08850249,0.0001387,53.2178,156.1647,98.9096,261.2053,0.000131,1.798e-05,0.0,0 STARLINK-4505,1 53556U 22101AF  23262.06444102  .00001798  00000-0  13100-3 0  9999,2 53556  53.2178 156.1647 0001387  98.9096 261.2053 15.08850249 60043,6917.849,95.437,540.674,538.755,0.0
53556.0,STARLINK-4505,PAYLOAD,2023-09-19 15:51:16,15.08848053,0.000136,53.217,153.4887,102.0881,258.0264,0.00011496,1.543e-05,0.0,0 STARLINK-4505,1 53556U 22101AF  23262.66060237  .00001543  00000-0  11496-3 0  9992,2 53556  53.2170 153.4887 0001360 102.0881 258.0264 15.08848053 60139,6917.856,95.437,540.662,538.78,0.0
53556.0,STARLINK-4505,PAYLOAD,2023-09-20 01:23:33,15.08872272,0.0001646,53.2173,151.7068,108.0668,252.0504,-0.00013038,-2.364e-05,0.0,0 STARLINK-4505,1 53556U 22101AF  23263.05802505 -.00002364  00000-0 -13038-3 0  9996,2 53556  53.2173 151.7068 0001646 108.0668 252.0504 15.08872272 60197,6917.782,95.436,540.785,538.508,0.0
53556.0,STARLINK-4505,PAYLOAD,2023-09-20 09:20:30,15.08848826,0.0001518,53.2168,150.214,72.5878,287.528,8.5016e-05,1.066e-05,0.0,0 STARLINK-4505,1 53556U 22101AF  23263.38923636  .00001066  00000-0  85016-4 0  9993,2 53556  53.2168 150.2140 0001518  72.5878 287.5280 15.08848826 60240,6917.853,95.437,540.769,538.668,0.0
53556.0,STARLINK-4505,PAYLOAD,2023-09-20 22:03:36,15.08810637,0.0001699,53.2171,147.8422,99.6354,260.483,-0.00056658,-9.287e-05,0.0,0 STARLINK-4505,1 53556U 22101AF  23263.91917752 -.00009287  00000-0 -56658-3 0  9998,2 53556  53.2171 147.8422 0001699  99.6354 260.4830 15.08810637 60327,6917.97,95.439,541.011,538.66,0.0
53556.0,STARLINK-4505,PAYLOAD,2023-09-21 01:14:23,15.08810398,0.0001653,53.217,147.2467,92.5519,267.5663,-0.00050626,-8.33e-05,0.0,0 STARLINK-4505,1 53556U 22101AF  23264.05166019 -.00008330  00000-0 -50626-3 0  9993,2 53556  53.2170 147.2467 0001653  92.5519 267.5663 15.08810398 60342,6917.971,95.439,540.979,538.692,0.0
